     2.100          NAVIGATION                              RINEX VERSION / TYPE
fic2rin                                 09/05/2016 00:06:55 PGM / RUN BY / DATE
                                                            END OF HEADER
15 16  9  4  1 59 44.0 -.325972214341D-03 -.147792889038D-11  .000000000000D+00
     .110000000000D+02  .748125000000D+02  .551987278200D-08  .167257640616D+01
     .406615436077D-05  .839988084044D-02  .761635601521D-05  .515366234779D+04
     .718400000000D+04 -.156462192535D-06 -.201159412002D+01  .204890966415D-06
     .930085654898D+00  .218156250000D+03  .495788866271D+00 -.864286000981D-08
     .356086260993D-09  .100000000000D+01  .191300000000D+04  .000000000000D+00
     .240000000000D+01  .000000000000D+00 -.107102096081D-07  .110000000000D+02
     .600000000000D+01  .400000000000D+01
 2 16  9  4  2  0  0.0  .557260587811D-03 -.466116034659D-11  .000000000000D+00
     .240000000000D+02 -.407500000000D+02  .529022035891D-08  .741843228611D+00
    -.226497650146D-05  .159095990239D-01  .391714274883D-05  .515362481117D+04
     .720000000000D+04 -.206753611565D-06  .219917854770D+01  .577419996262D-07
     .943910605254D+00  .296000000000D+03 -.208844662391D+01 -.885036865338D-08
    -.252867675811D-09  .100000000000D+01  .191300000000D+04  .000000000000D+00
     .240000000000D+01  .000000000000D+00 -.204890966415D-07  .240000000000D+02
     .600000000000D+01  .400000000000D+01
 4 16  9  4  2  0  0.0 -.260568223894D-03 -.227373675443D-12  .000000000000D+00
     .660000000000D+02 -.156250000000D+02  .485198781905D-08 -.273783154128D+01
    -.754371285439D-06  .843731162604D-02  .123530626297D-04  .515368042946D+04
     .720000000000D+04  .670552253723D-07  .170148240637D+00 -.540167093277D-07
     .983420681270D+00  .151250000000D+03  .900034634558D+00 -.746209654056D-08
    -.194293807403D-09  .100000000000D+01  .191300000000D+04  .000000000000D+00
     .340000000000D+01  .630000000000D+02 -.195577740669D-07  .660000000000D+02
     .600000000000D+01  .400000000000D+01
 5 16  9  4  2  0  0.0 -.934936106205D-04  .261479726760D-11  .000000000000D+00
     .450000000000D+02 -.337812500000D+02  .468340936851D-08 -.305661024434D+01
    -.174529850483D-05  .472581980284D-02  .117290765047D-04  .515359857941D+04
     .720000000000D+04 -.707805156708D-07 -.300816379279D+01 -.577419996262D-07
     .946945238630D+00  .149468750000D+03  .493915669890D+00 -.796140305296D-08
    -.478591363823D-10  .100000000000D+01  .191300000000D+04  .000000000000D+00
     .240000000000D+01  .000000000000D+00 -.107102096081D-07  .450000000000D+02
     .600000000000D+01  .400000000000D+01
 7 16  9  4  2  0  0.0  .429947394878D-03 -.284217094304D-11  .000000000000D+00
     .490000000000D+02 -.361875000000D+02  .488770359247D-08 -.383141317088D+00
    -.202096998692D-05  .998388743028D-02  .421889126301D-05  .515362473106D+04
     .720000000000D+04  .689178705215D-07 -.877660112992D+00  .156462192535D-06
     .965103371355D+00  .298625000000D+03 -.263690230970D+01 -.850392565121D-08
    -.437161066656D-09  .100000000000D+01  .191300000000D+04  .000000000000D+00
     .240000000000D+01  .000000000000D+00 -.111758708954D-07  .490000000000D+02
     .600000000000D+01  .400000000000D+01
11 16  9  4  2  0  0.0 -.662656966597D-03 -.227373675443D-11  .000000000000D+00
     .500000000000D+01  .571875000000D+01  .644848289091D-08 -.275565700498D+00
     .244006514549D-06  .168020005804D-01  .304915010929D-05  .515366821098D+04
     .720000000000D+04 -.281259417534D-06  .186273338699D+01  .106170773506D-06
     .897496890085D+00  .290375000000D+03  .156718425332D+01 -.948825236665D-08
     .206080012631D-09  .100000000000D+01  .191300000000D+04  .000000000000D+00
     .240000000000D+01  .000000000000D+00 -.121071934700D-07  .500000000000D+01
     .600000000000D+01  .400000000000D+01
12 16  9  4  2  0  0.0  .388329382986D-03  .341060513165D-12  .000000000000D+00
     .990000000000D+02 -.118125000000D+02  .358372070492D-08 -.983858861808D+00
    -.728294253349D-06  .604765908793D-02  .115875154734D-04  .515367253113D+04
     .720000000000D+04  .126659870148D-06  .200147350792D+00  .124797224998D-06
     .990493246499D+00  .173343750000D+03  .788494486566D+00 -.757638701550D-08
    -.250367571671D-09  .100000000000D+01  .191300000000D+04  .000000000000D+00
     .340000000000D+01  .000000000000D+00 -.125728547573D-07  .990000000000D+02
     .600000000000D+01  .400000000000D+01
13 16  9  4  2  0  0.0 -.416296534240D-04 -.227373675443D-11  .000000000000D+00
     .150000000000D+02  .646562500000D+02  .465733685392D-08  .588549668005D+00
     .339746475220D-05  .402924651280D-02  .625289976597D-05  .515368599319D+04
     .720000000000D+04 -.117346644402D-06 -.183425154085D+01 -.931322574615D-08
     .970567136314D+00  .264031250000D+03  .196670347373D+01 -.823498587736D-08
     .415017287136D-09  .100000000000D+01  .191300000000D+04  .000000000000D+00
     .240000000000D+01  .000000000000D+00 -.111758708954D-07  .150000000000D+02
     .600000000000D+01  .400000000000D+01
14 16  9  4  2  0  0.0 -.332645140588D-04 -.193267624127D-11  .000000000000D+00
     .900000000000D+01  .731250000000D+02  .473341145130D-08  .198794418990D+01
     .362657010555D-05  .894038146362D-02  .671111047268D-05  .515405318642D+04
     .720000000000D+04 -.745058059692D-08 -.187195313121D+01 -.210478901863D-06
     .963087037218D+00  .251250000000D+03 -.195244648124D+01 -.815141096756D-08
     .416088760338D-09  .100000000000D+01  .191300000000D+04  .000000000000D+00
     .240000000000D+01  .000000000000D+00 -.931322574615D-08  .900000000000D+01
     .600000000000D+01  .400000000000D+01
16 16  9  4  2  0  0.0  .458303838968D-05  .193267624127D-11  .000000000000D+00
     .810000000000D+02 -.156875000000D+02  .348621664349D-08 -.296424658097D+01
    -.867992639542D-06  .867033109535D-02  .124946236610D-04  .515356365013D+04
     .720000000000D+04 -.372529029846D-07  .218937173006D+00 -.782310962677D-07
     .990989380537D+00  .153062500000D+03  .388012335437D+00 -.742745224034D-08
    -.187150652719D-09  .100000000000D+01  .191300000000D+04  .000000000000D+00
     .240000000000D+01  .000000000000D+00 -.107102096081D-07  .810000000000D+02
     .600000000000D+01  .400000000000D+01
17 16  9  4  2  0  0.0 -.202825292945D-03  .341060513165D-12  .000000000000D+00
     .900000000000D+02  .623125000000D+02  .405016870578D-08  .241556610904D+01
     .321306288242D-05  .111306619365D-01  .703334808350D-05  .515373826408D+04
     .720000000000D+04  .117346644402D-06  .123907575364D+01 -.167638063431D-06
     .977120055487D+00  .249031250000D+03 -.192457899926D+01 -.776532345689D-08
     .477519890620D-09  .100000000000D+01  .191300000000D+04  .000000000000D+00
     .340000000000D+01  .000000000000D+00 -.107102096081D-07  .900000000000D+02
     .600000000000D+01  .400000000000D+01
18 16  9  4  2  0  0.0  .554133206606D-03  .386535248253D-11  .000000000000D+00
     .610000000000D+02 -.261250000000D+02  .507199698332D-08 -.230405470008D+01
    -.144727528095D-05  .172556105535D-01  .110380351543D-04  .515371889877D+04
     .720000000000D+04  .240281224251D-06 -.303141091574D+01  .726431608200D-07
     .925628147899D+00  .140875000000D+03 -.186127411303D+01 -.798354683249D-08
     .546451333320D-10  .100000000000D+01  .191300000000D+04  .000000000000D+00
     .240000000000D+01  .000000000000D+00 -.111758708954D-07  .610000000000D+02
     .600000000000D+01  .400000000000D+01
19 16  9  4  2  0  0.0 -.523493625224D-03  .454747350886D-12  .000000000000D+00
     .790000000000D+02  .668125000000D+02  .427660670926D-08 -.750402680369D+00
     .382959842682D-05  .105671501951D-01  .631995499134D-05  .515362711525D+04
     .720000000000D+04  .819563865662D-07  .128761231070D+01  .152736902237D-06
     .974240307099D+00  .264031250000D+03  .856698337267D+00 -.817391190481D-08
     .477162732886D-09  .100000000000D+01  .191300000000D+04  .000000000000D+00
     .240000000000D+01  .000000000000D+00 -.149011611938D-07  .790000000000D+02
     .600000000000D+01  .400000000000D+01
20 16  9  4  2  0  0.0  .433714594692D-03  .204636307899D-11  .000000000000D+00
     .650000000000D+02 -.450937500000D+02  .515021452711D-08  .154151473553D+01
    -.235438346863D-05  .468481401913D-02  .110529363155D-04  .515379897308D+04
     .720000000000D+04 -.577419996262D-07 -.308304881962D+01 -.104308128357D-06
     .926926930959D+00  .150156250000D+03  .142957658605D+01 -.827963059413D-08
    -.925038531568D-10  .100000000000D+01  .191300000000D+04  .000000000000D+00
     .240000000000D+01  .000000000000D+00 -.838190317154D-08  .650000000000D+02
     .600000000000D+01  .400000000000D+01
21 16  9  4  2  0  0.0 -.531467609107D-03 -.568434188608D-12  .000000000000D+00
     .590000000000D+02 -.430000000000D+02  .537879547699D-08 -.134094894482D+01
    -.160373747349D-05  .233990236884D-01  .395625829697D-05  .515355109024D+04
     .720000000000D+04  .119209289551D-06  .221043855794D+01  .586733222008D-06
     .937173605637D+00  .287937500000D+03 -.176301967502D+01 -.870964850611D-08
    -.129648257513D-09  .100000000000D+01  .191300000000D+04  .000000000000D+00
     .240000000000D+01  .000000000000D+00 -.977888703346D-08  .590000000000D+02
     .600000000000D+01  .400000000000D+01
22 16  9  4  2  0  0.0  .254471786320D-03 -.989075488178D-11  .000000000000D+00
     .560000000000D+02 -.460937500000D+02  .528093425782D-08  .191602427419D+01
    -.238977372646D-05  .749345449731D-02  .118091702461D-04  .515374300385D+04
     .720000000000D+04  .149011611938D-07 -.303097416739D+01 -.230967998505D-06
     .923564826296D+00  .133937500000D+03 -.186924373232D+01 -.828713090655D-08
    -.896465912832D-10  .100000000000D+01  .191300000000D+04  .000000000000D+00
     .240000000000D+01  .000000000000D+00 -.176951289177D-07  .560000000000D+02
     .600000000000D+01  .400000000000D+01
